[{"OBJECT_NAME":"STARLINK-6210","OBJECT_ID":"2023-064AP","EPOCH":"2026-03-09T13:19:56.082144","MEAN_MOTION":14.98328019,"ECCENTRICITY":0.0003351,"INCLINATION":69.9996,"RA_OF_ASC_NODE":124.6164,"ARG_OF_PERICENTER":268.0882,"MEAN_ANOMALY":91.9893,"EPHEMERIS_TYPE":0,"CLASSIFICATION_TYPE":"U","NORAD_CAT_ID":56485,"ELEMENT_SET_NO":999,"REV_AT_EPOCH":15572,"BSTAR":-4.4768e-5,"MEAN_MOTION_DOT":-6.27e-6,"MEAN_MOTION_DDOT":0},{"OBJECT_NAME":"CZ-6A DEB","OBJECT_ID":"2024-140GW","EPOCH":"2026-03-09T13:40:41.444832","MEAN_MOTION":14.63521789,"ECCENTRICITY":0.016262,"INCLINATION":89.029,"RA_OF_ASC_NODE":283.5875,"ARG_OF_PERICENTER":212.7771,"MEAN_ANOMALY":146.3276,"EPHEMERIS_TYPE":0,"CLASSIFICATION_TYPE":"U","NORAD_CAT_ID":60819,"ELEMENT_SET_NO":999,"REV_AT_EPOCH":8379,"BSTAR":0.00016069,"MEAN_MOTION_DOT":1.03e-5,"MEAN_MOTION_DDOT":0}]
